[{"OBJECT_NAME":"STARLINK-30212","OBJECT_ID":"2023-113M","EPOCH":"2026-03-09T22:00:01.999584","MEAN_MOTION":15.26693473,"ECCENTRICITY":0.0001577,"INCLINATION":43.0002,"RA_OF_ASC_NODE":15.1344,"ARG_OF_PERICENTER":266.5916,"MEAN_ANOMALY":166.5187,"EPHEMERIS_TYPE":0,"CLASSIFICATION_TYPE":"U","NORAD_CAT_ID":57506,"ELEMENT_SET_NO":999,"REV_AT_EPOCH":578,"BSTAR":0.0014601624,"MEAN_MOTION_DOT":0.0003906,"MEAN_MOTION_DDOT":0},{"OBJECT_NAME":"KUIPER-00184","OBJECT_ID":"2025-301G","EPOCH":"2026-03-09T22:00:01.999584","MEAN_MOTION":15.32782365,"ECCENTRICITY":0.00116958,"INCLINATION":51.8667,"RA_OF_ASC_NODE":64.5953,"ARG_OF_PERICENTER":53.2996,"MEAN_ANOMALY":333.7065,"EPHEMERIS_TYPE":0,"CLASSIFICATION_TYPE":"U","NORAD_CAT_ID":67139,"ELEMENT_SET_NO":999,"REV_AT_EPOCH":554,"BSTAR":-0.036844053,"MEAN_MOTION_DOT":-0.01088594,"MEAN_MOTION_DDOT":0}]
